MALLIGYONG-1            
1 58400U 23179A   24268.81427918  .00008731  00000+0  39795-3 0  9995
2 58400  97.3864 153.9451 0010454  86.0187 274.2244 15.20840840 46870
